COMMENT,ORIGINATOR,NORAD_CAT_ID,OBJECT_NAME,OBJECT_TYPE,CLASSIFICATION_TYPE,INTLDES,EPOCH,EPOCH_MICROSECONDS,MEAN_MOTION,ECCENTRICITY,INCLINATION,RA_OF_ASC_NODE,ARG_OF_PERICENTER,MEAN_ANOMALY,EPHEMERIS_TYPE,ELEMENT_SET_NO,REV_AT_EPOCH,BSTAR,MEAN_MOTION_DOT,MEAN_MOTION_DDOT,FILE,TLE_LINE0,TLE_LINE1,TLE_LINE2,OBJECT_ID,OBJECT_NUMBER,SEMIMAJOR_AXIS,PERIOD,APOGEE,PERIGEE,DECAYED
GENERATED VIA SPACETRACK.ORG API,18 SPCS,51976,STARLINK-3663,PAYLOAD,U,22025W,2025-01-25 11:35:29,680224,15.19797576,0.0003232,53.2144,66.4376,220.0721,140.0038,0,999,16061,0.001903,0.00041171,0.0,4621057,0 STARLINK-3663,1 51976U 22025W   25025.48298241  .00041171  00000-0  19030-2 0  9990,2 51976  53.2144  66.4376 0003232 220.0721 140.0038 15.19797576160612,2022-025W,51976,6884.589,94.749,508.679,504.229,0
GENERATED VIA SPACETRACK.ORG API,18 SPCS,51976,STARLINK-3663,PAYLOAD,U,22025W,2025-01-25 14:44:53,296800,15.19807744,0.0003205,53.2141,65.8366,220.7511,139.3246,0,999,15953,0.0018009,0.00038944,0.0,4621357,0 STARLINK-3663,1 51976U 22025W   25025.61450575  .00038944  00000-0  18009-2 0  9994,2 51976  53.2141  65.8366 0003205 220.7511 139.3246 15.19807744159535,2022-025W,51976,6884.558,94.749,508.63,504.217,0
GENERATED VIA SPACETRACK.ORG API,18 SPCS,51976,STARLINK-3663,PAYLOAD,U,22025W,2025-01-26 11:15:54,792288,15.19878705,0.000316,53.2132,61.9338,223.9512,136.1234,0,999,15966,0.0017977,0.00038955,0.0,4622044,0 STARLINK-3663,1 51976U 22025W   25026.46938417  .00038955  00000-0  17977-2 0  9999,2 51976  53.2132  61.9338 0003160 223.9512 136.1234 15.19878705159668,2022-025W,51976,6884.344,94.744,508.384,504.033,0
GENERATED VIA SPACETRACK.ORG API,18 SPCS,51976,STARLINK-3663,PAYLOAD,U,22025W,2025-01-27 03:02:48,914592,15.19936932,0.0003106,53.2128,58.9309,225.8055,134.2687,0,999,16086,0.0018545,0.00040272,0.0,4622603,0 STARLINK-3663,1 51976U 22025W   25027.12695503  .00040272  00000-0  18545-2 0  9996,2 51976  53.2128  58.9309 0003106 225.8055 134.2687 15.19936932160862,2022-025W,51976,6884.168,94.741,508.171,503.895,0
GENERATED VIA SPACETRACK.ORG API,18 SPCS,51976,STARLINK-3663,PAYLOAD,U,22025W,2025-01-27 09:21:34,67232,15.19955723,0.0002906,53.2131,57.7302,228.5339,131.5409,0,999,15980,0.0017377,0.00037722,0.0,4622945,0 STARLINK-3663,1 51976U 22025W   25027.38997763  .00037722  00000-0  17377-2 0  9995,2 51976  53.2131  57.7302 0002906 228.5339 131.5409 15.19955723159801,2022-025W,51976,6884.111,94.74,507.977,503.976,0
GENERATED VIA SPACETRACK.ORG API,18 SPCS,51976,STARLINK-3663,PAYLOAD,U,22025W,2025-01-28 05:52:28,466688,15.20028624,0.0002792,53.2129,53.8263,231.8883,128.1863,0,999,16103,0.0019377,0.00042217,0.0,4624105,0 STARLINK-3663,1 51976U 22025W   25028.24477392  .00042217  00000-0  19377-2 0  9999,2 51976  53.2129  53.8263 0002792 231.8883 128.1863 15.20028624161032,2022-025W,51976,6883.891,94.735,507.678,503.834,0
GENERATED VIA SPACETRACK.ORG API,18 SPCS,51976,STARLINK-3663,PAYLOAD,U,22025W,2025-01-29 08:42:02,38176,15.20125184,0.0002559,53.2122,48.7202,237.783,122.2919,0,999,16120,0.0020514,0.00044855,0.0,4625322,0 STARLINK-3663,1 51976U 22025W   25029.36252359  .00044855  00000-0  20514-2 0  9992,2 51976  53.2122  48.7202 0002559 237.7830 122.2919 15.20125184161204,2022-025W,51976,6883.6,94.729,507.226,503.703,0
GENERATED VIA SPACETRACK.ORG API,18 SPCS,51976,STARLINK-3663,PAYLOAD,U,22025W,2025-01-29 08:42:02,38176,15.20125184,0.0002559,53.2122,48.7202,237.783,122.2919,0,999,16010,0.0020514,0.00044855,0.0,4625365,0 STARLINK-3663,1 51976U 22025W   25029.36252359  .00044855  00000-0  20514-2 0  9992,2 51976  53.2122  48.7202 0002559 237.7830 122.2919 15.20125184160102,2022-025W,51976,6883.6,94.729,507.226,503.703,0
GENERATED VIA SPACETRACK.ORG API,18 SPCS,51976,STARLINK-3663,PAYLOAD,U,22025W,2025-01-29 18:10:05,423808,15.20152815,0.0002374,53.2121,46.9181,242.2184,117.8573,0,999,16016,0.0016744,0.00036539,0.0,4625610,0 STARLINK-3663,1 51976U 22025W   25029.75700722  .00036539  00000-0  16744-2 0  9997,2 51976  53.2121  46.9181 0002374 242.2184 117.8573 15.20152815160168,2022-025W,51976,6883.516,94.727,507.015,503.747,0
GENERATED VIA SPACETRACK.ORG API,18 SPCS,51976,STARLINK-3663,PAYLOAD,U,22025W,2025-01-30 08:22:08,988096,15.20202431,0.0002426,53.2115,44.2142,244.8765,115.1981,0,999,16025,0.0017202,0.00037608,0.0,4625944,0 STARLINK-3663,1 51976U 22025W   25030.34871514  .00037608  00000-0  17202-2 0  9990,2 51976  53.2115  44.2142 0002426 244.8765 115.1981 15.20202431160254,2022-025W,51976,6883.366,94.724,506.901,503.562,0
GENERATED VIA SPACETRACK.ORG API,18 SPCS,51976,STARLINK-3663,PAYLOAD,U,22025W,2025-01-30 08:22:08,988096,15.20202431,0.0002426,53.2115,44.2142,244.8765,115.1981,0,999,16135,0.0017202,0.00037608,0.0,4626496,0 STARLINK-3663,1 51976U 22025W   25030.34871514  .00037608  00000-0  17202-2 0  9990,2 51976  53.2115  44.2142 0002426 244.8765 115.1981 15.20202431161356,2022-025W,51976,6883.366,94.724,506.901,503.562,0
GENERATED VIA SPACETRACK.ORG API,18 SPCS,51976,STARLINK-3663,PAYLOAD,U,22025W,2025-01-31 09:36:51,615360,15.20286828,0.0002303,53.2114,39.4078,247.8174,112.2579,0,999,16151,0.0018766,0.00041178,0.0,4627154,0 STARLINK-3663,1 51976U 22025W   25031.40059740  .00041178  00000-0  18766-2 0  9990,2 51976  53.2114  39.4078 0002303 247.8174 112.2579 15.20286828161511,2022-025W,51976,6883.112,94.719,506.562,503.392,0
GENERATED VIA SPACETRACK.ORG API,18 SPCS,51976,STARLINK-3663,PAYLOAD,U,22025W,2025-01-31 09:36:51,615360,15.20286828,0.0002303,53.2114,39.4078,247.8174,112.2579,0,999,16041,0.0018766,0.00041178,0.0,4627199,0 STARLINK-3663,1 51976U 22025W   25031.40059740  .00041178  00000-0  18766-2 0  9990,2 51976  53.2114  39.4078 0002303 247.8174 112.2579 15.20286828160419,2022-025W,51976,6883.112,94.719,506.562,503.392,0
GENERATED VIA SPACETRACK.ORG API,18 SPCS,51976,STARLINK-3663,PAYLOAD,U,22025W,2025-01-31 17:30:11,462112,15.20312643,0.0002085,53.2118,37.9055,255.5391,104.5375,0,999,16046,0.0017844,0.00039158,0.0,4627471,0 STARLINK-3663,1 51976U 22025W   25031.72929933  .00039158  00000-0  17844-2 0  9996,2 51976  53.2118  37.9055 0002085 255.5391 104.5375 15.20312643160463,2022-025W,51976,6883.034,94.717,506.334,503.464,0
GENERATED VIA SPACETRACK.ORG API,18 SPCS,51976,STARLINK-3663,PAYLOAD,U,22025W,2025-02-01 07:42:09,664416,15.20369425,0.0002065,53.2116,35.2019,258.063,102.0136,0,999,16055,0.0021453,0.00047274,0.0,4628095,0 STARLINK-3663,1 51976U 22025W   25032.32094519  .00047274  00000-0  21453-2 0  9995,2 51976  53.2116  35.2019 0002065 258.0630 102.0136 15.20369425160552,2022-025W,51976,6882.862,94.714,506.149,503.306,0
GENERATED VIA SPACETRACK.ORG API,18 SPCS,51976,STARLINK-3663,PAYLOAD,U,22025W,2025-02-01 07:42:09,664416,15.20369425,0.0002065,53.2116,35.2019,258.063,102.0136,0,999,16165,0.0021453,0.00047274,0.0,4628330,0 STARLINK-3663,1 51976U 22025W   25032.32094519  .00047274  00000-0  21453-2 0  9995,2 51976  53.2116  35.2019 0002065 258.0630 102.0136 15.20369425161654,2022-025W,51976,6882.862,94.714,506.149,503.306,0
GENERATED VIA SPACETRACK.ORG API,18 SPCS,51976,STARLINK-3663,PAYLOAD,U,22025W,2025-02-01 23:28:45,559776,15.20431746,0.0002027,53.2117,32.1973,260.1566,99.9203,0,999,16065,0.0022498,0.000497,0.0,4628366,0 STARLINK-3663,1 51976U 22025W   25032.97830509  .00049700  00000-0  22498-2 0  9999,2 51976  53.2117  32.1973 0002027 260.1566  99.9203 15.20431746160654,2022-025W,51976,6882.674,94.71,505.934,503.144,0
GENERATED VIA SPACETRACK.ORG API,18 SPCS,51976,STARLINK-3663,PAYLOAD,U,22025W,2025-02-02 07:22:02,614944,15.20464746,0.0002004,53.2118,30.6948,261.4583,98.6187,0,999,16070,0.0023432,0.00051842,0.0,4629041,0 STARLINK-3663,1 51976U 22025W   25033.30697471  .00051842  00000-0  23432-2 0  9995,2 51976  53.2118  30.6948 0002004 261.4583  98.6187 15.20464746160707,2022-025W,51976,6882.575,94.708,505.819,503.061,0
GENERATED VIA SPACETRACK.ORG API,18 SPCS,51976,STARLINK-3663,PAYLOAD,U,22025W,2025-02-02 23:08:34,970496,15.20523606,0.000194,53.2118,27.6901,263.9766,96.101,0,999,16080,0.002063,0.00045644,0.0,4629305,0 STARLINK-3663,1 51976U 22025W   25033.96429364  .00045644  00000-0  20630-2 0  9991,2 51976  53.2118  27.6901 0001940 263.9766  96.1010 15.20523606160800,2022-025W,51976,6882.397,94.704,505.597,502.927,0
GENERATED VIA SPACETRACK.ORG API,18 SPCS,51976,STARLINK-3663,PAYLOAD,U,22025W,2025-02-03 05:27:11,227392,15.20547331,0.0001891,53.2119,26.4886,265.3792,94.6989,0,999,16194,0.0019824,0.00043868,0.0,4629567,0 STARLINK-3663,1 51976U 22025W   25034.22721328  .00043868  00000-0  19824-2 0  9995,2 51976  53.2119  26.4886 0001891 265.3792  94.6989 15.20547331161945,2022-025W,51976,6882.326,94.703,505.492,502.889,0
GENERATED VIA SPACETRACK.ORG API,18 SPCS,51976,STARLINK-3663,PAYLOAD,U,22025W,2025-02-03 08:36:29,353248,15.20558877,0.0001759,53.2123,25.8882,279.8831,80.1968,0,999,16086,0.0019509,0.00043176,0.0,4629997,0 STARLINK-3663,1 51976U 22025W   25034.35867307  .00043176  00000-0  19509-2 0  9999,2 51976  53.2123  25.8882 0001759 279.8831  80.1968 15.20558877160860,2022-025W,51976,6882.291,94.702,505.366,502.945,0
GENERATED VIA SPACETRACK.ORG API,18 SPCS,51976,STARLINK-3663,PAYLOAD,U,22025W,2025-02-04 08:16:11,666208,15.20644835,0.0001834,53.2115,21.3808,284.2092,75.8702,0,999,16211,0.0019056,0.00042267,0.0,4630841,0 STARLINK-3663,1 51976U 22025W   25035.34457947  .00042267  00000-0  19056-2 0  9991,2 51976  53.2115  21.3808 0001834 284.2092  75.8702 15.20644835162110,2022-025W,51976,6882.031,94.697,505.159,502.634,0
GENERATED VIA SPACETRACK.ORG API,18 SPCS,51976,STARLINK-3663,PAYLOAD,U,22025W,2025-02-04 08:16:11,666208,15.20644835,0.0001834,53.2115,21.3808,284.2092,75.8702,0,999,16101,0.0019056,0.00042267,0.0,4631053,0 STARLINK-3663,1 51976U 22025W   25035.34457947  .00042267  00000-0  19056-2 0  9991,2 51976  53.2115  21.3808 0001834 284.2092  75.8702 15.20644835161018,2022-025W,51976,6882.031,94.697,505.159,502.634,0
